NORAD_CAT_ID,OBJECT_NAME,OBJECT_TYPE,EPOCH,MEAN_MOTION,ECCENTRICITY,INCLINATION,RA_OF_ASC_NODE,ARG_OF_PERICENTER,MEAN_ANOMALY,BSTAR,MEAN_MOTION_DOT,MEAN_MOTION_DDOT,TLE_LINE0,TLE_LINE1,TLE_LINE2,SEMIMAJOR_AXIS,PERIOD,APOGEE,PERIGEE,DECAYED
56769.0,STARLINK-5978,PAYLOAD,2023-12-25 21:00:29,14.98332377,0.000241,69.9988,233.6783,258.1546,101.9342,4.0334e-06,-4.5e-07,0.0,0 STARLINK-5978,1 56769U 23078C   23359.87534644 -.00000045  00000-0  40334-5 0  9995,2 56769  69.9988 233.6783 0002410 258.1546 101.9342 14.98332377 31634,6950.186,96.107,573.726,570.376,0.0
56769.0,STARLINK-5978,PAYLOAD,2023-12-26 01:48:54,14.98333914,0.0002458,69.9985,233.1718,265.9513,94.1365,-4.3657e-06,-1.45e-06,0.0,0 STARLINK-5978,1 56769U 23078C   23360.07562563 -.00000145  00000-0 -43657-5 0  9993,2 56769  69.9985 233.1718 0002458 265.9513  94.1365 14.98333914 31665,6950.181,96.107,573.754,570.337,0.0
56769.0,STARLINK-5978,PAYLOAD,2023-12-26 19:26:22,14.98331483,0.0002411,69.9986,231.3207,267.0506,93.0377,-1.0873e-05,-2.23e-06,0.0,0 STARLINK-5978,1 56769U 23078C   23360.80998762 -.00000223  00000-0 -10873-4 0  9998,2 56769  69.9986 231.3207 0002411 267.0506  93.0377 14.98331483 32035,6950.188,96.107,573.729,570.378,0.0
56769.0,STARLINK-5978,PAYLOAD,2023-12-26 22:38:38,14.98332013,0.0002579,69.9983,230.9854,262.5969,97.4897,-1.3288e-08,-9.3e-07,0.0,0 STARLINK-5978,1 56769U 23078C   23360.94350663 -.00000093  00000-0 -13288-7 0  9996,2 56769  69.9983 230.9854 0002579 262.5969  97.4897 14.98332013 31790,6950.187,96.107,573.844,570.259,0.0
56769.0,STARLINK-5978,PAYLOAD,2023-12-27 14:39:59,14.98330726,0.0002529,69.9983,229.3014,266.8107,93.2763,1.9655e-05,1.42e-06,0.0,0 STARLINK-5978,1 56769U 23078C   23361.61110697  .00000142  00000-0  19655-4 0  9996,2 56769  69.9983 229.3014 0002529 266.8107  93.2763 14.98330726 31892,6950.191,96.107,573.813,570.298,0.0
56769.0,STARLINK-5978,PAYLOAD,2023-12-27 19:28:23,14.98332239,0.0002475,69.9986,228.7959,270.5219,89.5657,3.1903e-05,2.88e-06,0.0,0 STARLINK-5978,1 56769U 23078C   23361.81138577  .00000288  00000-0  31903-4 0  9996,2 56769  69.9986 228.7959 0002475 270.5219  89.5657 14.98332239 32186,6950.186,96.107,573.771,570.331,0.0
56769.0,STARLINK-5978,PAYLOAD,2023-12-28 14:42:00,14.98328729,0.0002421,69.9987,226.7765,267.9337,92.1544,2.856e-05,2.48e-06,0.0,0 STARLINK-5978,1 56769U 23078C   23362.61250725  .00000248  00000-0  28560-4 0  9996,2 56769  69.9987 226.7765 0002421 267.9337  92.1544 14.98328729 32041,6950.197,96.107,573.744,570.379,0.0
56769.0,STARLINK-5978,PAYLOAD,2023-12-28 19:30:24,14.98328804,0.0002427,69.9988,226.2715,266.8486,93.2396,2.7419e-05,2.34e-06,0.0,0 STARLINK-5978,1 56769U 23078C   23362.81278718  .00000234  00000-0  27419-4 0  9997,2 56769  69.9988 226.2715 0002427 266.8486  93.2396 14.98328804 32334,6950.197,96.107,573.748,570.375,0.0
56769.0,STARLINK-5978,PAYLOAD,2023-12-28 21:06:32,14.98328859,0.0002412,69.9988,226.1032,266.587,93.5013,2.8089e-05,2.42e-06,0.0,0 STARLINK-5978,1 56769U 23078C   23362.87954697  .00000242  00000-0  28089-4 0  9993,2 56769  69.9988 226.1032 0002412 266.5870  93.5013 14.98328859 32084,6950.196,96.107,573.738,570.385,0.0
56769.0,STARLINK-5978,PAYLOAD,2023-12-29 01:54:57,14.98328136,0.0002432,69.9988,225.5984,268.41,91.678,1.5651e-05,9.4e-07,0.0,0 STARLINK-5978,1 56769U 23078C   23363.07982795  .00000094  00000-0  15651-4 0  9992,2 56769  69.9988 225.5984 0002432 268.4100  91.6780 14.98328136 32114,6950.199,96.107,573.754,570.373,0.0
56769.0,STARLINK-5978,PAYLOAD,2023-12-29 19:32:25,14.9833294,0.0002447,69.999,223.7471,268.9152,91.1727,2.557e-05,2.12e-06,0.0,0 STARLINK-5978,1 56769U 23078C   23363.81418414  .00000212  00000-0  25570-4 0  9999,2 56769  69.9990 223.7471 0002447 268.9152  91.1727 14.98332940 32480,6950.184,96.107,573.75,570.348,0.0
56769.0,STARLINK-5978,PAYLOAD,2023-12-29 21:08:33,14.98332785,0.0002448,69.999,223.5787,268.8968,91.1911,2.3222e-05,1.84e-06,0.0,0 STARLINK-5978,1 56769U 23078C   23363.88094409  .00000184  00000-0  23222-4 0  9990,2 56769  69.9990 223.5787 0002448 268.8968  91.1911 14.98332785 32238,6950.184,96.107,573.751,570.348,0.0
56769.0,STARLINK-5978,PAYLOAD,2023-12-30 14:46:02,14.98328845,0.0002442,69.9989,221.7274,269.0488,91.0391,1.3921e-05,7.3e-07,0.0,0 STARLINK-5978,1 56769U 23078C   23364.61530630  .00000073  00000-0  13921-4 0  9995,2 56769  69.9989 221.7274 0002442 269.0488  91.0391 14.98328845 32346,6950.196,96.107,573.759,570.364,0.0
56769.0,STARLINK-5978,PAYLOAD,2023-12-30 19:34:26,14.9832881,0.0002463,69.999,221.2222,268.0803,92.0074,9.6655e-06,2.2e-07,0.0,0 STARLINK-5978,1 56769U 23078C   23364.81558637  .00000022  00000-0  96655-5 0  9994,2 56769  69.9990 221.2222 0002463 268.0803  92.0074 14.98328810 32632,6950.197,96.107,573.773,570.35,0.0
56769.0,STARLINK-5978,PAYLOAD,2023-12-30 22:46:42,14.98329308,0.000245,69.999,220.8856,267.8102,92.2777,1.4418e-05,7.9e-07,0.0,0 STARLINK-5978,1 56769U 23078C   23364.94910575  .00000079  00000-0  14418-4 0  9999,2 56769  69.9990 220.8856 0002450 267.8102  92.2777 14.98329308 32393,6950.195,96.107,573.763,570.357,0.0
56769.0,STARLINK-5978,PAYLOAD,2023-12-31 19:36:27,14.98332494,0.0002383,69.9993,218.6973,265.4721,94.6166,1.4823e-05,8.4e-07,0.0,0 STARLINK-5978,1 56769U 23078C   23365.81698317  .00000084  00000-0  14823-4 0  9999,2 56769  69.9993 218.6973 0002383 265.4721  94.6166 14.98332494 32788,6950.185,96.107,573.706,570.394,0.0
56769.0,STARLINK-5978,PAYLOAD,2023-12-31 21:12:35,14.98332365,0.0002389,69.9992,218.5289,265.7808,94.3078,1.2491e-05,5.6e-07,0.0,0 STARLINK-5978,1 56769U 23078C   23365.88374311  .00000056  00000-0  12491-4 0  9999,2 56769  69.9992 218.5289 0002389 265.7808  94.3078 14.98332365 32530,6950.186,96.107,573.711,570.39,0.0
56769.0,STARLINK-5978,PAYLOAD,2024-01-01 14:50:04,14.98322071,0.0002341,69.9993,216.6772,269.8086,90.2805,-4.5316e-05,-6.33e-06,0.0,0 STARLINK-5978,1 56769U 23078C   24001.61811237 -.00000633  00000-0 -45316-4 0  9996,2 56769  69.9993 216.6772 0002341 269.8086  90.2805 14.98322071 32646,6950.217,96.108,573.709,570.455,0.0
56769.0,STARLINK-5978,PAYLOAD,2024-01-01 19:38:29,14.98319685,0.0002401,69.9991,216.1725,269.3994,90.689,-7.5538e-05,-9.94e-06,0.0,0 STARLINK-5978,1 56769U 23078C   24001.81839562 -.00000994  00000-0 -75538-4 0  9998,2 56769  69.9991 216.1725 0002401 269.3994  90.6890 14.98319685 32934,6950.225,96.108,573.759,570.421,0.0
56769.0,STARLINK-5978,PAYLOAD,2024-01-01 22:50:46,14.98314678,0.0002477,69.999,215.8357,270.1369,89.9506,-0.00013279,-1.676e-05,0.0,0 STARLINK-5978,1 56769U 23078C   24001.95192143 -.00001676  00000-0 -13279-3 0  9991,2 56769  69.9990 215.8357 0002477 270.1369  89.9506 14.98314678 32694,6950.24,96.108,573.827,570.384,0.0
56769.0,STARLINK-5978,PAYLOAD,2024-01-02 00:26:54,14.98314491,0.0002478,69.999,215.6674,270.24,89.8475,-0.00013295,-1.678e-05,0.0,0 STARLINK-5978,1 56769U 23078C   24002.01868214 -.00001678  00000-0 -13295-3 0  9998,2 56769  69.9990 215.6674 0002478 270.2400  89.8475 14.98314491 32969,6950.241,96.108,573.828,570.384,0.0
56769.0,STARLINK-5978,PAYLOAD,2024-01-02 14:52:06,14.98323842,0.0002643,69.9985,214.1522,269.8167,90.2689,-6.0664e-05,-8.17e-06,0.0,0 STARLINK-5978,1 56769U 23078C   24002.61951806 -.00000817  00000-0 -60664-4 0  9991,2 56769  69.9985 214.1522 0002643 269.8167  90.2689 14.98323842 32791,6950.212,96.107,573.914,570.24,0.0
56769.0,STARLINK-5978,PAYLOAD,2024-01-02 19:40:30,14.98324347,0.0002624,69.9986,213.6471,269.8837,90.2021,-4.9232e-05,-6.8e-06,0.0,0 STARLINK-5978,1 56769U 23078C   24002.81979830 -.00000680  00000-0 -49232-4 0  9996,2 56769  69.9986 213.6471 0002624 269.8837  90.2021 14.98324347 33086,6950.21,96.107,573.899,570.252,0.0
56769.0,STARLINK-5978,PAYLOAD,2024-01-02 21:16:38,14.98325498,0.0002596,69.9986,213.4787,269.7365,90.3496,-3.4113e-05,-5e-06,0.0,0 STARLINK-5978,1 56769U 23078C   24002.88655736 -.00000500  00000-0 -34113-4 0  9992,2 56769  69.9986 213.4787 0002596 269.7365  90.3496 14.98325498 32834,6950.207,96.107,573.876,570.268,0.0
56769.0,STARLINK-5978,PAYLOAD,2024-01-03 00:28:54,14.9832652,0.0002596,69.9986,213.1422,269.5816,90.5046,-1.9491e-05,-3.25e-06,0.0,0 STARLINK-5978,1 56769U 23078C   24003.02007677 -.00000325  00000-0 -19491-4 0  9991,2 56769  69.9986 213.1422 0002596 269.5816  90.5046 14.98326520 32858,6950.204,96.107,573.873,570.264,0.0
56769.0,STARLINK-5978,PAYLOAD,2024-01-03 19:42:31,14.98319297,0.0002572,69.9986,211.1214,268.7639,91.3225,0.00012818,1.436e-05,0.0,0 STARLINK-5978,1 56769U 23078C   24003.82120112  .00001436  00000-0  12818-3 0  9996,2 56769  69.9986 211.1214 0002572 268.7639  91.3225 14.98319297 33237,6950.226,96.108,573.879,570.303,0.0
56769.0,STARLINK-5978,PAYLOAD,2024-01-03 21:18:39,14.98321062,0.0002531,69.9986,210.9531,267.7096,92.3774,0.00014839,1.678e-05,0.0,0 STARLINK-5978,1 56769U 23078C   24003.88795985  .00001678  00000-0  14839-3 0  9991,2 56769  69.9986 210.9531 0002531 267.7096  92.3774 14.98321062 32981,6950.221,96.108,573.845,570.326,0.0
56769.0,STARLINK-5978,PAYLOAD,2024-01-04 13:20:00,14.98329112,0.0002501,69.9986,209.2703,267.9941,92.0932,7.0939e-05,7.54e-06,0.0,0 STARLINK-5978,1 56769U 23078C   24004.55555955  .00000754  00000-0  70939-4 0  9995,2 56769  69.9986 209.2703 0002501 267.9941  92.0932 14.98329112 33080,6950.196,96.107,573.799,570.322,0.0
56769.0,STARLINK-5978,PAYLOAD,2024-01-04 19:44:32,14.98330212,0.0002471,69.9987,208.5969,267.7206,92.367,8.1624e-05,8.81e-06,0.0,0 STARLINK-5978,1 56769U 23078C   24004.82259860  .00000881  00000-0  81624-4 0  9995,2 56769  69.9987 208.5969 0002471 267.7206  92.3670 14.98330212 33383,6950.192,96.107,573.775,570.34,0.0
56769.0,STARLINK-5978,PAYLOAD,2024-01-04 21:20:40,14.983304,0.000247,69.9987,208.4286,267.7298,92.3578,8.2198e-05,8.88e-06,0.0,0 STARLINK-5978,1 56769U 23078C   24004.88935845  .00000888  00000-0  82198-4 0  9999,2 56769  69.9987 208.4286 0002470 267.7298  92.3578 14.98330400 33133,6950.192,96.107,573.773,570.34,0.0
